{
    "links": {
        "self": "http://www.neowsapp.com/rest/v1/neo/3797760?api_key=iIulBulltgU6a56xZRHN4H3l9WmuAYTsLGpBGhQ2"
    },
    "id": "3797760",
    "neo_reference_id": "3797760",
    "name": "(2017 YL14)",
    "designation": "2017 YL14",
    "nasa_jpl_url": "http://ssd.jpl.nasa.gov/sbdb.cgi?sstr=3797760",
    "absolute_magnitude_h": 28.141,
    "estimated_diameter": {
        "kilometers": {
            "estimated_diameter_min": 0.006256839,
            "estimated_diameter_max": 0.0139907172
        },
        "meters": {
            "estimated_diameter_min": 6.2568389522,
            "estimated_diameter_max": 13.9907172214
        },
        "miles": {
            "estimated_diameter_min": 0.0038878183,
            "estimated_diameter_max": 0.008693426
        },
        "feet": {
            "estimated_diameter_min": 20.527687508,
            "estimated_diameter_max": 45.9013046887
        }
    },
    "is_potentially_hazardous_asteroid": false,
    "close_approach_data": [
        {
            "close_approach_date": "2017-12-24",
            "close_approach_date_full": "2017-Dec-24 13:14",
            "epoch_date_close_approach": 1514121240000,
            "relative_velocity": {
                "kilometers_per_second": "6.4965029242",
                "kilometers_per_hour": "23387.410527105",
                "miles_per_hour": "14532.0273911337"
            },
            "miss_distance": {
                "astronomical": "0.0115287261",
                "lunar": "4.4846744529",
                "kilometers": "1724672.868373407",
                "miles": "1071662.0267787366"
            },
            "orbiting_body": "Earth"
        },
        {
            "close_approach_date": "2046-11-05",
            "close_approach_date_full": "2046-Nov-05 04:05",
            "epoch_date_close_approach": 2425003500000,
            "relative_velocity": {
                "kilometers_per_second": "21.0720141673",
                "kilometers_per_hour": "75859.2510024312",
                "miles_per_hour": "47135.9884909273"
            },
            "miss_distance": {
                "astronomical": "0.472054041",
                "lunar": "183.629021949",
                "kilometers": "70618279.05849267",
                "miles": "43880163.856712046"
            },
            "orbiting_body": "Earth"
        }
    ],
    "orbital_data": {
        "orbit_id": "1",
        "orbit_determination_date": "2018-01-20 06:52:46",
        "first_observation_date": "2017-12-25",
        "last_observation_date": "2017-12-26",
        "data_arc_in_days": 1,
        "observations_used": 20,
        "orbit_uncertainty": "8",
        "minimum_orbit_intersection": ".00762636",
        "jupiter_tisserand_invariant": "3.779",
        "epoch_osculation": "2458113.5",
        "eccentricity": ".4833093461401429",
        "semi_major_axis": "1.914575646563828",
        "inclination": "2.179983535744231",
        "ascending_node_longitude": "273.5468602625318",
        "orbital_period": "967.6253163221544",
        "perihelion_distance": ".9892433426872226",
        "perihelion_argument": "189.5946832285275",
        "aphelion_distance": "2.839907950440432",
        "perihelion_time": "2458120.470598642583",
        "mean_anomaly": "357.4066247864743",
        "mean_motion": ".3720448338085277",
        "equinox": "J2000",
        "orbit_class": {
            "orbit_class_type": "APO",
            "orbit_class_description": "Near-Earth asteroid orbits which cross the Earth’s orbit similar to that of 1862 Apollo",
            "orbit_class_range": "a (semi-major axis) > 1.0 AU; q (perihelion) < 1.017 AU"
        }
    },
    "is_sentry_object": false
}